*******************************************************************************
JPL/HORIZONS               287 Nephthys (A889 QA)          2020-Jun-22 08:46:48
Rec #:     287 (+COV) Soln.date: 2020-Feb-22_15:23:11   # obs: 3304 (1896-2020)
 
IAU76/J2000 helio. ecliptic osc. elements (au, days, deg., period=Julian yrs):
 
  EPOCH=  2453604.5 ! 2005-Aug-22.00 (TDB)         Residual RMS= .25839
   EC= .02353749979279487  QR= 2.297793785148289   TP= 2453182.5059440103
   OM= 142.4909726994159   W=  120.3521092742716   IN= 10.02251041667815
   A= 2.353181801309008    MA= 115.2198183133696   ADIST= 2.408569817469727
   PER= 3.60987            N= .273036583           ANGMOM= .026380854
   DAN= 2.38019            DDN= 2.32423            L= 263.2287278
   B= 8.637426700000001    MOID= 1.29533005        TP= 2004-Jun-26.0059440103
 
Asteroid physical parameters (km, seconds, rotational period in hours):
   GM= n.a.                RAD= 29.8075            ROTPER= 7.605
   H= 8.2                  G= .220                 B-V= .873
                           ALBEDO= .238            STYP= S
 
ASTEROID comments: 
1: soln ref.= JPL#116, OCC=0
2: source=ORB
*******************************************************************************
 
 
*******************************************************************************
Ephemeris / WWW_USER Mon Jun 22 08:46:49 2020 Pasadena, USA      / Horizons
*******************************************************************************
Target body name: 287 Nephthys (A889 QA)          {source: JPL#116}
Center body name: Solar System Barycenter (0)     {source: DE431}
Center-site name: BODY CENTER
*******************************************************************************
Start time      : A.D. 1969-Jun-28 00:00:00.0000 TDB
Stop  time      : A.D. 2071-May-04 00:00:00.0000 TDB
Step-size       : 7200 minutes
*******************************************************************************
Center geodetic : 0.00000000,0.00000000,0.0000000 {E-lon(deg),Lat(deg),Alt(km)}
Center cylindric: 0.00000000,0.00000000,0.0000000 {E-lon(deg),Dxy(km),Dz(km)}
Center radii    : (undefined)                                                  
Small perturbers: Yes                             {source: SB431-N16}
Output units    : AU-D
Output type     : GEOMETRIC cartesian states
Output format   : 2 (position and velocity)
Reference frame : Ecliptic of J2000.0
*******************************************************************************
Initial IAU76/J2000 heliocentric ecliptic osculating elements (au, days, deg.):
  EPOCH=  2453604.5 ! 2005-Aug-22.00 (TDB)         Residual RMS= .25839        
   EC= .02353749979279487  QR= 2.297793785148289   TP= 2453182.5059440103      
   OM= 142.4909726994159   W=  120.3521092742716   IN= 10.02251041667815       
  Equivalent ICRF heliocentric equatorial cartesian coordinates (au, au/d):
   X= 2.208922333604284E+00  Y= 8.801997026413233E-01  Z=-8.162982474560487E-04
  VX=-3.717668413180380E-03 VY= 9.964591022781874E-03 VZ= 3.166760365988374E-03
Asteroid physical parameters (km, seconds, rotational period in hours):        
   GM= n.a.                RAD= 29.8075            ROTPER= 7.605               
   H= 8.2                  G= .220                 B-V= .873                   
                           ALBEDO= .238            STYP= S                     
*******************************************************************************
            JDTDB,            Calendar Date (TDB),        delta-T,                      X,                      Y,                      Z,                     VX,                     VY,                     VZ,
******************************************************************************************************************************************************************************************************************
$$SOE
2473720.500000000, A.D. 2060-Sep-18 00:00:00.0000,      69.182449, -8.133377553922599E-01,  2.241347814826588E+00, -2.246876426987535E-01, -1.022252025973751E-02, -3.649117508438508E-03,  1.625436226268665E-03,
2473725.500000000, A.D. 2060-Sep-23 00:00:00.0000,      69.182414, -8.642289014101798E-01,  2.222503806912051E+00, -2.165011626079310E-01, -1.013302158891819E-02, -3.888178633745263E-03,  1.649012765705823E-03,
2473730.500000000, A.D. 2060-Sep-28 00:00:00.0000,      69.182390, -9.146588373412036E-01,  2.202469200642017E+00, -2.081989562316377E-01, -1.003804263754555E-02, -4.125336483288182E-03,  1.671724602553673E-03,
2473735.500000000, A.D. 2060-Oct-03 00:00:00.0000,      69.182378, -9.646002600616939E-01,  2.181253817496351E+00, -1.997853788655048E-01, -9.937623135510373E-03, -4.360469099834644E-03,  1.693559081108073E-03,
2473740.500000000, A.D. 2060-Oct-08 00:00:00.0000,      69.182376, -1.014026071373648E+00,  2.158868087459362E+00, -1.912648482181608E-01, -9.831805323664027E-03, -4.593455045664600E-03,  1.714503892878806E-03,
2473745.500000000, A.D. 2060-Oct-13 00:00:00.0000,      69.182386, -1.062909390566054E+00,  2.135323046318763E+00, -1.826418426598431E-01, -9.720633956287503E-03, -4.824173444199246E-03,  1.734547082769765E-03,
2473750.500000000, A.D. 2060-Oct-18 00:00:00.0000,      69.182409, -1.111223566986465E+00,  2.110630332752516E+00, -1.739208994392574E-01, -9.604156302756172E-03, -5.052504023295194E-03,  1.753677055609725E-03,
2473755.500000000, A.D. 2060-Oct-23 00:00:00.0000,      69.182445, -1.158942192619864E+00,  2.084802185194380E+00, -1.651066128669102E-01, -9.482422148915572E-03, -5.278327160460299E-03,  1.771882583010903E-03,
2473760.500000000, A.D. 2060-Oct-28 00:00:00.0000,      69.182493, -1.206039114675399E+00,  2.057851438469413E+00, -1.562036324637363E-01, -9.355483798974544E-03, -5.501523929501402E-03,  1.789152810345969E-03,
2473765.500000000, A.D. 2060-Nov-02 00:00:00.0000,      69.182552, -1.252488448184407E+00,  2.029791520194993E+00, -1.472166610751472E-01, -9.223396078008608E-03, -5.721976147516563E-03,  1.805477263574108E-03,
2473770.500000000, A.D. 2060-Nov-07 00:00:00.0000,      69.182621, -1.298264588609960E+00,  2.000636446946120E+00, -1.381504529511823E-01, -9.086216333855417E-03, -5.939566422411215E-03,  1.820845856038456E-03,
2473775.500000000, A.D. 2060-Nov-12 00:00:00.0000,      69.182699, -1.343342224463765E+00,  1.970400820178741E+00, -1.290098117920450E-01, -8.944004438390961E-03, -6.154178202273358E-03,  1.835248895514881E-03,
2473780.500000000, A.D. 2060-Nov-17 00:00:00.0000,      69.182789, -1.387696349931378E+00,  1.939099821903273E+00, -1.197995887584089E-01, -8.796822789731075E-03, -6.365695825523634E-03,  1.848677091165166E-03,
2473785.500000000, A.D. 2060-Nov-22 00:00:00.0000,      69.182890, -1.431302277510045E+00,  1.906749210109453E+00, -1.105246804479098E-01, -8.644736314801754E-03, -6.574004570151682E-03,  1.861121560120082E-03,
2473790.500000000, A.D. 2060-Nov-27 00:00:00.0000,      69.182999, -1.474135650657038E+00,  1.873365313946276E+00, -1.011900268391162E-01, -8.487812470806516E-03, -6.778990702674081E-03,  1.872573833965777E-03,
2473795.500000000, A.D. 2060-Dec-02 00:00:00.0000,      69.183115, -1.516172456441681E+00,  1.838965028655294E+00, -9.180060920274830E-02, -8.326121245262968E-03, -6.980541527958220E-03,  1.883025865376635E-03,
2473800.500000000, A.D. 2060-Dec-07 00:00:00.0000,      69.183237, -1.557389038194495E+00,  1.803565810251624E+00, -8.236144797927127E-02, -8.159735154853503E-03, -7.178545440343223E-03,  1.892470034929577E-03,
2473805.500000000, A.D. 2060-Dec-12 00:00:00.0000,      69.183364, -1.597762108148056E+00,  1.767185669946015E+00, -7.287760062203630E-02, -7.988729243283905E-03, -7.372891976085591E-03,  1.900899158062828E-03,
2473810.500000000, A.D. 2060-Dec-17 00:00:00.0000,      69.183497, -1.637268760064849E+00,  1.729843168301507E+00, -6.335415940535027E-02, -7.813181078227243E-03, -7.563471867064059E-03,  1.908306492140555E-03,
2473815.500000000, A.D. 2060-Dec-22 00:00:00.0000,      69.183636, -1.675886481847573E+00,  1.691557409118568E+00, -5.379624919701605E-02, -7.633170747357395E-03, -7.750177095673023E-03,  1.914685743596006E-03,
2473820.500000000, A.D. 2060-Dec-27 00:00:00.0000,      69.183778, -1.713593168127277E+00,  1.652348033042927E+00, -4.420902519500435E-02, -7.448780853443791E-03, -7.932900950842021E-03,  1.920031075133459E-03,
2473825.500000000, A.D. 2061-Jan-01 00:00:00.0000,      69.183920, -1.750367132824527E+00,  1.612235210890603E+00, -3.459767062799428E-02, -7.260096508452422E-03, -8.111538085125113E-03,  1.924337112976601E-03,
2473830.500000000, A.D. 2061-Jan-06 00:00:00.0000,      69.184062, -1.786187121678420E+00,  1.571239636684929E+00, -2.496739441957311E-02, -7.067205326573250E-03, -8.285984572813628E-03,  1.927598954156519E-03,
2473835.500000000, A.D. 2061-Jan-11 00:00:00.0000,      69.184203, -1.821032324737839E+00,  1.529382520400492E+00, -1.532342881589923E-02, -6.870197416068083E-03, -8.456137969048257E-03,  1.929812173837373E-03,
2473840.500000000, A.D. 2061-Jan-16 00:00:00.0000,      69.184343, -1.854882388808772E+00,  1.486685580409020E+00, -5.671026976647629E-03, -6.669165369832157E-03, -8.621897369939025E-03,  1.930972832678851E-03,
2473845.500000000, A.D. 2061-Jan-21 00:00:00.0000,      69.184483, -1.887717429851188E+00,  1.443171035622093E+00,  3.984539470931251E-03, -6.464204254686362E-03, -8.783163473704315E-03,  1.931077484221011E-03,
2473850.500000000, A.D. 2061-Jan-26 00:00:00.0000,      69.184618, -1.919518045319783E+00,  1.398861597325985E+00,  1.363798291483167E-02, -6.255411599691861E-03, -8.939838642601403E-03,  1.930123182242269E-03,
2473855.500000000, A.D. 2061-Jan-31 00:00:00.0000,      69.184748, -1.950265326444232E+00,  1.353780460706350E+00,  2.328400227771932E-02, -6.042887383547050E-03, -9.091826964929380E-03,  1.928107488042787E-03,
